COSMOS 1933             
1 18958U 88020A   26040.11290036  .00003513  00000+0  17267-3 0  9990
2 18958  82.5120 279.1857 0003174 318.7899  41.3095 15.17736832 45891
SL-3 R/B                
1 19046U 88032B   26040.22231376  .00007294  00000+0  34356-3 0  9994
2 19046  97.5153  23.5924 0025360 337.4568  22.5551 15.19540009 47789
SL-16 R/B               
1 19120U 88039B   26040.30196974 -.00000077  00000+0 -13766-4 0  9994
2 19120  71.0149 128.5764 0021009  17.6441 342.5409 14.19611545954355
COSMOS 1953             
1 19210U 88050A   26039.88109938  .00010923  00000+0  39881-3 0  9996
2 19210  82.5092 187.2014 0010642 221.8193 138.2234 15.27938590 33382
SL-8 R/B                
1 19257U 88053B   26039.74247746  .00000303  00000+0  10685-3 0  9997
2 19257  74.0481 165.8179 0020403 350.4601 114.6240 14.38898183972431
COSMOS 1975             
1 19573U 88093A   26040.30005055  .00010758  00000+0  39725-3 0  9992
2 19573  82.5220 146.1644 0010302 269.8249  90.1809 15.27569092 15074
SL-14 R/B               
1 19574U 88093B   26040.17306354  .00000462  00000+0  50281-4 0  9996
2 19574  82.5279  68.8211 0021945 129.7992 296.9219 14.85623983996806
SL-16 R/B               
1 19650U 88102B   26040.01521072  .00000242  00000+0  14617-3 0  9999
2 19650  70.9973 211.8266 0012472  48.8917 311.3281 14.16147286922830
INTERCOSMOS 24          
1 20261U 89080A   26040.28800079  .00000604  00000+0  17457-3 0  9998
2 20261  82.6067 122.8907 1188019 358.7768   1.0474 12.59518956663229
SL-14 R/B               
1 20262U 89080C   26040.22945722  .00000504  00000+0  15266-3 0  9993
2 20262  82.5945 191.4559 1229463 249.8297  96.6605 12.50458915656592
DELTA 1 R/B             
1 20323U 89089B   26040.13339990  .00000392  00000+0  10575-3 0  9997
2 20323  97.0725 252.1100 0068251 211.9514 147.7538 14.50638813891594
ARIANE 40 R/B           
1 20443U 90005H   26040.18301305  .00000315  00000+0  11394-3 0  9999
2 20443  98.3147 101.6849 0008971 292.7581  67.2659 14.39851271888702
