CCSDS_OMM_VERS = 2.0
CREATION_DATE  = 
ORIGINATOR     = 

OBJECT_NAME    = COSMOS 1933
OBJECT_ID      = 1988-020A
CENTER_NAME    = EARTH
REF_FRAME      = TEME
TIME_SYSTEM    = UTC
MEAN_ELEMENT_THEORY = SGP/SGP4

EPOCH          = 2026-02-09T02:42:34.591104
MEAN_MOTION    = 15.17736832
ECCENTRICITY   = .00031743
INCLINATION    = 82.5120
RA_OF_ASC_NODE = 279.1857
ARG_OF_PERICENTER = 318.7899
MEAN_ANOMALY   = 41.3095

EPHEMERIS_TYPE = 0
CLASSIFICATION_TYPE = U
NORAD_CAT_ID   = 18958
ELEMENT_SET_NO = 999
REV_AT_EPOCH   = 4589
BSTAR          = .17267234E-3
MEAN_MOTION_DOT = .3513E-4
MEAN_MOTION_DDOT = 0

CCSDS_OMM_VERS = 2.0
CREATION_DATE  = 
ORIGINATOR     = 

OBJECT_NAME    = SL-3 R/B
OBJECT_ID      = 1988-032B
CENTER_NAME    = EARTH
REF_FRAME      = TEME
TIME_SYSTEM    = UTC
MEAN_ELEMENT_THEORY = SGP/SGP4

EPOCH          = 2026-02-09T05:20:07.908864
MEAN_MOTION    = 15.19540009
ECCENTRICITY   = .00253606
INCLINATION    = 97.5153
RA_OF_ASC_NODE = 23.5924
ARG_OF_PERICENTER = 337.4568
MEAN_ANOMALY   = 22.5551

EPHEMERIS_TYPE = 0
CLASSIFICATION_TYPE = U
NORAD_CAT_ID   = 19046
ELEMENT_SET_NO = 999
REV_AT_EPOCH   = 4778
BSTAR          = .34356125E-3
MEAN_MOTION_DOT = .7294E-4
MEAN_MOTION_DDOT = 0

CCSDS_OMM_VERS = 2.0
CREATION_DATE  = 
ORIGINATOR     = 

OBJECT_NAME    = SL-16 R/B
OBJECT_ID      = 1988-039B
CENTER_NAME    = EARTH
REF_FRAME      = TEME
TIME_SYSTEM    = UTC
MEAN_ELEMENT_THEORY = SGP/SGP4

EPOCH          = 2026-02-09T07:14:50.185536
MEAN_MOTION    = 14.19611545
ECCENTRICITY   = .00210092
INCLINATION    = 71.0149
RA_OF_ASC_NODE = 128.5764
ARG_OF_PERICENTER = 17.6441
MEAN_ANOMALY   = 342.5409

EPHEMERIS_TYPE = 0
CLASSIFICATION_TYPE = U
NORAD_CAT_ID   = 19120
ELEMENT_SET_NO = 999
REV_AT_EPOCH   = 95435
BSTAR          = -.13766257E-4
MEAN_MOTION_DOT = -.77E-6
MEAN_MOTION_DDOT = 0

CCSDS_OMM_VERS = 2.0
CREATION_DATE  = 
ORIGINATOR     = 

OBJECT_NAME    = COSMOS 1953
OBJECT_ID      = 1988-050A
CENTER_NAME    = EARTH
REF_FRAME      = TEME
TIME_SYSTEM    = UTC
MEAN_ELEMENT_THEORY = SGP/SGP4

EPOCH          = 2026-02-08T21:08:46.986432
MEAN_MOTION    = 15.27938590
ECCENTRICITY   = .0010642
INCLINATION    = 82.5092
RA_OF_ASC_NODE = 187.2014
ARG_OF_PERICENTER = 221.8193
MEAN_ANOMALY   = 138.2234

EPHEMERIS_TYPE = 0
CLASSIFICATION_TYPE = U
NORAD_CAT_ID   = 19210
ELEMENT_SET_NO = 999
REV_AT_EPOCH   = 3338
BSTAR          = .39881227E-3
MEAN_MOTION_DOT = .10923E-3
MEAN_MOTION_DDOT = 0

CCSDS_OMM_VERS = 2.0
CREATION_DATE  = 
ORIGINATOR     = 

OBJECT_NAME    = SL-8 R/B
OBJECT_ID      = 1988-053B
CENTER_NAME    = EARTH
REF_FRAME      = TEME
TIME_SYSTEM    = UTC
MEAN_ELEMENT_THEORY = SGP/SGP4

EPOCH          = 2026-02-08T17:49:10.052544
MEAN_MOTION    = 14.38898183
ECCENTRICITY   = .0020403
INCLINATION    = 74.0481
RA_OF_ASC_NODE = 165.8179
ARG_OF_PERICENTER = 350.4601
MEAN_ANOMALY   = 114.6240

EPHEMERIS_TYPE = 0
CLASSIFICATION_TYPE = U
NORAD_CAT_ID   = 19257
ELEMENT_SET_NO = 999
REV_AT_EPOCH   = 97243
BSTAR          = .10685477E-3
MEAN_MOTION_DOT = .303E-5
MEAN_MOTION_DDOT = 0

CCSDS_OMM_VERS = 2.0
CREATION_DATE  = 
ORIGINATOR     = 

OBJECT_NAME    = COSMOS 1975
OBJECT_ID      = 1988-093A
CENTER_NAME    = EARTH
REF_FRAME      = TEME
TIME_SYSTEM    = UTC
MEAN_ELEMENT_THEORY = SGP/SGP4

EPOCH          = 2026-02-09T07:12:04.367520
MEAN_MOTION    = 15.27569092
ECCENTRICITY   = .00103029
INCLINATION    = 82.5220
RA_OF_ASC_NODE = 146.1644
ARG_OF_PERICENTER = 269.8249
MEAN_ANOMALY   = 90.1809

EPHEMERIS_TYPE = 0
CLASSIFICATION_TYPE = U
NORAD_CAT_ID   = 19573
ELEMENT_SET_NO = 999
REV_AT_EPOCH   = 1507
BSTAR          = .39725384E-3
MEAN_MOTION_DOT = .10758E-3
MEAN_MOTION_DDOT = 0

CCSDS_OMM_VERS = 2.0
CREATION_DATE  = 
ORIGINATOR     = 

OBJECT_NAME    = SL-14 R/B
OBJECT_ID      = 1988-093B
CENTER_NAME    = EARTH
REF_FRAME      = TEME
TIME_SYSTEM    = UTC
MEAN_ELEMENT_THEORY = SGP/SGP4

EPOCH          = 2026-02-09T04:09:12.689856
MEAN_MOTION    = 14.85623983
ECCENTRICITY   = .00219452
INCLINATION    = 82.5279
RA_OF_ASC_NODE = 68.8211
ARG_OF_PERICENTER = 129.7992
MEAN_ANOMALY   = 296.9219

EPHEMERIS_TYPE = 0
CLASSIFICATION_TYPE = U
NORAD_CAT_ID   = 19574
ELEMENT_SET_NO = 999
REV_AT_EPOCH   = 99680
BSTAR          = .50281036E-4
MEAN_MOTION_DOT = .462E-5
MEAN_MOTION_DDOT = 0

CCSDS_OMM_VERS = 2.0
CREATION_DATE  = 
ORIGINATOR     = 

OBJECT_NAME    = SL-16 R/B
OBJECT_ID      = 1988-102B
CENTER_NAME    = EARTH
REF_FRAME      = TEME
TIME_SYSTEM    = UTC
MEAN_ELEMENT_THEORY = SGP/SGP4

EPOCH          = 2026-02-09T00:21:54.206208
MEAN_MOTION    = 14.16147286
ECCENTRICITY   = .00124724
INCLINATION    = 70.9973
RA_OF_ASC_NODE = 211.8266
ARG_OF_PERICENTER = 48.8917
MEAN_ANOMALY   = 311.3281

EPHEMERIS_TYPE = 0
CLASSIFICATION_TYPE = U
NORAD_CAT_ID   = 19650
ELEMENT_SET_NO = 999
REV_AT_EPOCH   = 92283
BSTAR          = .14617381E-3
MEAN_MOTION_DOT = .242E-5
MEAN_MOTION_DDOT = 0

CCSDS_OMM_VERS = 2.0
CREATION_DATE  = 
ORIGINATOR     = 

OBJECT_NAME    = INTERCOSMOS 24
OBJECT_ID      = 1989-080A
CENTER_NAME    = EARTH
REF_FRAME      = TEME
TIME_SYSTEM    = UTC
MEAN_ELEMENT_THEORY = SGP/SGP4

EPOCH          = 2026-02-09T06:54:43.268256
MEAN_MOTION    = 12.59518956
ECCENTRICITY   = .11880194
INCLINATION    = 82.6067
RA_OF_ASC_NODE = 122.8907
ARG_OF_PERICENTER = 358.7768
MEAN_ANOMALY   = 1.0474

EPHEMERIS_TYPE = 0
CLASSIFICATION_TYPE = U
NORAD_CAT_ID   = 20261
ELEMENT_SET_NO = 999
REV_AT_EPOCH   = 66322
BSTAR          = .17456673E-3
MEAN_MOTION_DOT = .604E-5
MEAN_MOTION_DDOT = 0

CCSDS_OMM_VERS = 2.0
CREATION_DATE  = 
ORIGINATOR     = 

OBJECT_NAME    = SL-14 R/B
OBJECT_ID      = 1989-080C
CENTER_NAME    = EARTH
REF_FRAME      = TEME
TIME_SYSTEM    = UTC
MEAN_ELEMENT_THEORY = SGP/SGP4

EPOCH          = 2026-02-09T05:30:25.103808
MEAN_MOTION    = 12.50458915
ECCENTRICITY   = .12294633
INCLINATION    = 82.5945
RA_OF_ASC_NODE = 191.4559
ARG_OF_PERICENTER = 249.8297
MEAN_ANOMALY   = 96.6605

EPHEMERIS_TYPE = 0
CLASSIFICATION_TYPE = U
NORAD_CAT_ID   = 20262
ELEMENT_SET_NO = 999
REV_AT_EPOCH   = 65659
BSTAR          = .15265874E-3
MEAN_MOTION_DOT = .504E-5
MEAN_MOTION_DDOT = 0

CCSDS_OMM_VERS = 2.0
CREATION_DATE  = 
ORIGINATOR     = 

OBJECT_NAME    = DELTA 1 R/B
OBJECT_ID      = 1989-089B
CENTER_NAME    = EARTH
REF_FRAME      = TEME
TIME_SYSTEM    = UTC
MEAN_ELEMENT_THEORY = SGP/SGP4

EPOCH          = 2026-02-09T03:12:05.751360
MEAN_MOTION    = 14.50638813
ECCENTRICITY   = .00682513
INCLINATION    = 97.0725
RA_OF_ASC_NODE = 252.1100
ARG_OF_PERICENTER = 211.9514
MEAN_ANOMALY   = 147.7538

EPHEMERIS_TYPE = 0
CLASSIFICATION_TYPE = U
NORAD_CAT_ID   = 20323
ELEMENT_SET_NO = 999
REV_AT_EPOCH   = 89159
BSTAR          = .10574918E-3
MEAN_MOTION_DOT = .392E-5
MEAN_MOTION_DDOT = 0

CCSDS_OMM_VERS = 2.0
CREATION_DATE  = 
ORIGINATOR     = 

OBJECT_NAME    = ARIANE 40 R/B
OBJECT_ID      = 1990-005H
CENTER_NAME    = EARTH
REF_FRAME      = TEME
TIME_SYSTEM    = UTC
MEAN_ELEMENT_THEORY = SGP/SGP4

EPOCH          = 2026-02-09T04:23:32.327520
MEAN_MOTION    = 14.39851271
ECCENTRICITY   = .00089718
INCLINATION    = 98.3147
RA_OF_ASC_NODE = 101.6849
ARG_OF_PERICENTER = 292.7581
MEAN_ANOMALY   = 67.2659

EPHEMERIS_TYPE = 0
CLASSIFICATION_TYPE = U
NORAD_CAT_ID   = 20443
ELEMENT_SET_NO = 999
REV_AT_EPOCH   = 88870
BSTAR          = .11393731E-3
MEAN_MOTION_DOT = .315E-5
MEAN_MOTION_DDOT = 0

